NORAD_CAT_ID,OBJECT_NAME,OBJECT_TYPE,EPOCH,MEAN_MOTION,ECCENTRICITY,INCLINATION,RA_OF_ASC_NODE,ARG_OF_PERICENTER,MEAN_ANOMALY,BSTAR,MEAN_MOTION_DOT,MEAN_MOTION_DDOT,TLE_LINE0,TLE_LINE1,TLE_LINE2,SEMIMAJOR_AXIS,PERIOD,APOGEE,PERIGEE,DECAYED
52619.0,STARLINK-3741,PAYLOAD,2024-07-05 06:51:20,15.08848733,0.0001305,53.2158,138.3007,89.9725,270.1417,0.00014048,1.949e-05,0.0,0 STARLINK-3741,1 52619U 22052X   24187.28565815  .00001949  00000-0  14048-3 0  9999,2 52619  53.2158 138.3007 0001305  89.9725 270.1417 15.08848733118919,6917.854,95.437,540.621,538.816,0.0
52619.0,STARLINK-3741,PAYLOAD,2024-07-05 13:12:53,15.08842635,0.0001256,53.2151,137.1095,86.2027,273.9108,0.00011938,1.613e-05,0.0,0 STARLINK-3741,1 52619U 22052X   24187.55062126  .00001613  00000-0  11938-3 0  9999,2 52619  53.2151 137.1095 0001256  86.2027 273.9108 15.08842635118571,6917.872,95.437,540.606,538.868,0.0
52619.0,STARLINK-3741,PAYLOAD,2024-07-06 13:03:40,15.0884079,0.0001345,53.2167,132.6538,91.3757,268.7389,2.0706e-05,4.2e-07,0.0,0 STARLINK-3741,1 52619U 22052X   24188.54422189  .00000042  00000-0  20706-4 0  9997,2 52619  53.2167 132.6538 0001345  91.3757 268.7389 15.08840790118726,6917.878,95.438,540.673,538.813,0.0
52619.0,STARLINK-3741,PAYLOAD,2024-07-06 21:00:36,15.08835221,0.0001441,53.2175,131.1692,103.5343,256.5809,-5.2004e-05,-1.115e-05,0.0,0 STARLINK-3741,1 52619U 22052X   24188.87542659 -.00001115  00000-0 -52004-4 0  9998,2 52619  53.2175 131.1692 0001441 103.5343 256.5809 15.08835221119157,6917.895,95.438,540.757,538.763,0.0
52619.0,STARLINK-3741,PAYLOAD,2024-07-07 04:57:32,15.08836493,0.0001415,53.2169,129.6802,91.9411,268.1743,2.1709e-06,-2.53e-06,0.0,0 STARLINK-3741,1 52619U 22052X   24189.20662709 -.00000253  00000-0  21709-5 0  9995,2 52619  53.2169 129.6802 0001415  91.9411 268.1743 15.08836493118823,6917.891,95.438,540.735,538.777,0.0
52619.0,STARLINK-3741,PAYLOAD,2024-07-08 12:45:15,15.08847314,0.0001283,53.216,123.7316,81.4909,278.6229,0.00016282,2.305e-05,0.0,0 STARLINK-3741,1 52619U 22052X   24190.53142437  .00002305  00000-0  16282-3 0  9991,2 52619  53.2160 123.7316 0001283  81.4909 278.6229 15.08847314119402,6917.858,95.437,540.611,538.835,0.0
52619.0,STARLINK-3741,PAYLOAD,2024-07-09 04:39:06,15.08844918,0.0001511,53.217,120.7577,82.1058,278.0106,0.00016844,2.394e-05,0.0,0 STARLINK-3741,1 52619U 22052X   24191.19382639  .00002394  00000-0  16844-3 0  9996,2 52619  53.2170 120.7577 0001511  82.1058 278.0106 15.08844918119502,6917.865,95.437,540.776,538.685,0.0
52619.0,STARLINK-3741,PAYLOAD,2024-07-09 12:36:01,15.08848835,0.000114,53.2166,119.2676,88.2192,271.8931,-0.00033498,-5.616e-05,0.0,0 STARLINK-3741,1 52619U 22052X   24191.52502105 -.00005616  00000-0 -33498-3 0  9991,2 52619  53.2166 119.2676 0001140  88.2192 271.8931 15.08848835119176,6917.853,95.437,540.507,538.93,0.0
52619.0,STARLINK-3741,PAYLOAD,2024-07-10 01:19:07,15.08839891,0.0001242,53.2164,116.8892,105.1615,254.9515,-2.5064e-05,-6.87e-06,0.0,0 STARLINK-3741,1 52619U 22052X   24192.05495326 -.00000687  00000-0 -25064-4 0  9990,2 52619  53.2164 116.8892 0001242 105.1615 254.9515 15.08839891119632,6917.881,95.438,540.605,538.887,0.0
52619.0,STARLINK-3741,PAYLOAD,2024-07-10 12:26:49,15.08840166,0.0001461,53.2179,114.8085,112.2557,247.859,4.8081e-05,4.77e-06,0.0,0 STARLINK-3741,1 52619U 22052X   24192.51863198  .00000477  00000-0  48081-4 0  9996,2 52619  53.2179 114.8085 0001461 112.2557 247.8590 15.08840166119324,6917.88,95.438,540.756,538.734,0.0
52619.0,STARLINK-3741,PAYLOAD,2024-07-10 21:59:08,15.0883939,0.0001339,53.2163,113.0267,89.4215,270.6931,0.00010256,1.345e-05,0.0,0 STARLINK-3741,1 52619U 22052X   24192.91607206  .00001345  00000-0  10256-3 0  9993,2 52619  53.2163 113.0267 0001339  89.4215 270.6931 15.08839390119386,6917.882,95.438,540.674,538.821,0.0
52619.0,STARLINK-3741,PAYLOAD,2024-07-11 01:09:54,15.08845795,0.0001352,53.2158,112.4319,96.8029,263.3117,0.00010992,1.462e-05,0.0,0 STARLINK-3741,1 52619U 22052X   24193.04854973  .00001462  00000-0  10992-3 0  9990,2 52619  53.2158 112.4319 0001352  96.8029 263.3117 15.08845795119405,6917.863,95.437,540.663,538.792,0.0
52619.0,STARLINK-3741,PAYLOAD,2024-07-12 01:00:41,15.08845906,0.0001494,53.2165,107.9705,100.128,259.988,0.00019525,2.821e-05,0.0,0 STARLINK-3741,1 52619U 22052X   24194.04214945  .00002821  00000-0  19525-3 0  9991,2 52619  53.2165 107.9705 0001494 100.1280 259.9880 15.08845906119554,6917.862,95.437,540.761,538.694,0.0
52619.0,STARLINK-3741,PAYLOAD,2024-07-12 18:29:56,15.08841752,0.0001486,53.2165,104.7013,95.482,264.6341,7.4585e-05,8.99e-06,0.0,0 STARLINK-3741,1 52619U 22052X   24194.77079222  .00000899  00000-0  74585-4 0  9999,2 52619  53.2165 104.7013 0001486  95.4820 264.6341 15.08841752120044,6917.875,95.437,540.768,538.712,0.0
52619.0,STARLINK-3741,PAYLOAD,2024-07-12 21:40:42,15.08848712,0.0001555,53.2164,104.1054,97.2904,262.8265,-0.00021016,-3.632e-05,0.0,0 STARLINK-3741,1 52619U 22052X   24194.90326696 -.00003632  00000-0 -21016-3 0  9994,2 52619  53.2164 104.1054 0001555  97.2904 262.8265 15.08848712119688,6917.854,95.437,540.794,538.643,0.0
52619.0,STARLINK-3741,PAYLOAD,2024-07-13 10:23:47,15.08838323,0.0001329,53.2158,101.7296,96.9322,263.1822,9.6756e-06,-1.34e-06,0.0,0 STARLINK-3741,1 52619U 22052X   24195.43319361 -.00000134  00000-0  96756-5 0  9992,2 52619  53.2158 101.7296 0001329  96.9322 263.1822 15.08838323119760,6917.886,95.438,540.67,538.831,0.0
52619.0,STARLINK-3741,PAYLOAD,2024-07-13 21:31:30,15.08828754,0.0001336,53.216,99.648,100.1735,259.9407,0.00027445,4.081e-05,0.0,0 STARLINK-3741,1 52619U 22052X   24195.89687846  .00004081  00000-0  27445-3 0  9999,2 52619  53.2160  99.6480 0001336 100.1735 259.9407 15.08828754119834,6917.915,95.438,540.704,538.856,0.0
52619.0,STARLINK-3741,PAYLOAD,2024-07-14 00:42:16,15.08842227,0.0001282,53.2172,99.0537,99.4137,260.7,8.172e-05,1.013e-05,0.0,0 STARLINK-3741,1 52619U 22052X   24196.02935334  .00001013  00000-0  81720-4 0  9992,2 52619  53.2172  99.0537 0001282  99.4137 260.7000 15.08842227120236,6917.874,95.437,540.625,538.852,0.0
52619.0,STARLINK-3741,PAYLOAD,2024-07-14 10:14:34,15.0884968,0.0001361,53.2179,97.2687,98.1755,261.9392,3.8868e-05,3.31e-06,0.0,0 STARLINK-3741,1 52619U 22052X   24196.42678768  .00000331  00000-0  38868-4 0  9998,2 52619  53.2179  97.2687 0001361  98.1755 261.9392 15.08849680119919,6917.851,95.437,540.657,538.774,0.0
52619.0,STARLINK-3741,PAYLOAD,2024-07-14 21:22:17,15.0883767,0.0001428,53.2178,95.1877,101.1911,258.9242,5.5305e-05,5.92e-06,0.0,0 STARLINK-3741,1 52619U 22052X   24196.89047455  .00000592  00000-0  55305-4 0  9996,2 52619  53.2178  95.1877 0001428 101.1911 258.9242 15.08837670119982,6917.888,95.438,540.74,538.765,0.0
52619.0,STARLINK-3741,PAYLOAD,2024-07-15 02:08:26,15.08845765,0.0001276,53.2188,94.2952,90.6403,269.4735,0.00015628,2.201e-05,0.0,0 STARLINK-3741,1 52619U 22052X   24197.08918999  .00002201  00000-0  15628-3 0  9990,2 52619  53.2188  94.2952 0001276  90.6403 269.4735 15.08845765120391,6917.863,95.437,540.61,538.845,0.0
52619.0,STARLINK-3741,PAYLOAD,2024-07-15 10:05:22,15.08835678,0.0001564,53.2168,92.8083,88.9417,271.1755,2.2402e-05,6.9e-07,0.0,0 STARLINK-3741,1 52619U 22052X   24197.42039665  .00000069  00000-0  22402-4 0  9991,2 52619  53.2168  92.8083 0001564  88.9417 271.1755 15.08835678120443,6917.894,95.438,540.841,538.677,0.0
52619.0,STARLINK-3741,PAYLOAD,2024-07-15 22:48:27,15.08838123,0.0001625,53.2181,90.4298,90.9946,269.1233,1.7385e-05,-1.1e-07,0.0,0 STARLINK-3741,1 52619U 22052X   24197.95031656 -.00000011  00000-0  17385-4 0  9993,2 52619  53.2181  90.4298 0001625  90.9946 269.1233 15.08838123120141,6917.886,95.438,540.875,538.627,0.0
52619.0,STARLINK-3741,PAYLOAD,2024-07-16 00:23:50,15.08842147,0.0001421,53.2178,90.1301,84.2617,275.8538,5.3008e-05,5.56e-06,0.0,0 STARLINK-3741,1 52619U 22052X   24198.01655700  .00000556  00000-0  53008-4 0  9998,2 52619  53.2178  90.1301 0001421  84.2617 275.8538 15.08842147120158,6917.874,95.437,540.722,538.756,0.0
52619.0,STARLINK-3741,PAYLOAD,2024-07-16 22:39:13,15.0884809,0.0001615,53.2179,85.968,87.0948,273.0229,0.00017868,2.557e-05,0.0,0 STARLINK-3741,1 52619U 22052X   24198.94391113  .00002557  00000-0  17868-3 0  9991,2 52619  53.2179  85.9680 0001615  87.0948 273.0229 15.08848090120299,6917.856,95.437,540.838,538.603,0.0
52619.0,STARLINK-3741,PAYLOAD,2024-07-17 00:14:36,15.08850946,0.000158,53.2173,85.6681,72.8795,287.237,0.0001938,2.799e-05,0.0,0 STARLINK-3741,1 52619U 22052X   24199.01015005  .00002799  00000-0  19380-3 0  9992,2 52619  53.2173  85.6681 0001580  72.8795 287.2370 15.08850946120684,6917.847,95.437,540.805,538.619,0.0
52619.0,STARLINK-3741,PAYLOAD,2024-07-17 09:46:55,15.08844232,0.0001202,53.2174,83.8856,89.3417,270.7713,2.4548e-05,1.03e-06,0.0,0 STARLINK-3741,1 52619U 22052X   24199.40759035  .00000103  00000-0  24548-4 0  9993,2 52619  53.2174  83.8856 0001202  89.3417 270.7713 15.08844232120368,6917.867,95.437,540.564,538.901,0.0
52619.0,STARLINK-3741,PAYLOAD,2024-07-17 20:54:39,15.088241,0.0001463,53.2184,81.8014,93.7916,266.3243,-0.00010114,-1.897e-05,0.0,0 STARLINK-3741,1 52619U 22052X   24199.87128589 -.00001897  00000-0 -10114-3 0  9994,2 52619  53.2184  81.8014 0001463  93.7916 266.3243 15.08824100120816,6917.929,95.439,540.806,538.782,0.0
52619.0,STARLINK-3741,PAYLOAD,2024-07-17 22:30:01,15.08829433,0.0001524,53.2175,81.4993,112.8016,247.3137,-0.00014286,-2.56e-05,0.0,0 STARLINK-3741,1 52619U 22052X   24199.93752205 -.00002560  00000-0 -14286-3 0  9991,2 52619  53.2175  81.4993 0001524 112.8016 247.3137 15.08829433120444,6917.913,95.438,540.832,538.723,0.0
52619.0,STARLINK-3741,PAYLOAD,2024-07-18 09:37:43,15.08834091,0.0001581,53.2183,79.4193,106.9819,253.1347,-1.2113e-05,-4.81e-06,0.0,0 STARLINK-3741,1 52619U 22052X   24200.40120357 -.00000481  00000-0 -12113-4 0  9991,2 52619  53.2183  79.4193 0001581 106.9819 253.1347 15.08834091120893,6917.898,95.438,540.857,538.67,0.0
